LATITUDE,LONGITUDE,POST_CODE,POOL_NAME,WEBSITE
53.40346,-2.95404,L7 3HJ,St Anne's Pool,http://www.stannescatholicprimary.com/hire-our-pool/
53.39808,-2.92567,L15 4LE,Liverpool Aquatics Centre,http://www.liverpool.gov.uk
53.40376,-2.96518,L69 7ZN,University Of Liverpool Sports Centre,http://www.liv.ac.uk/sports
53.38708,-2.96899,L8 6QH,Lifestyles Park Road,http://www.liverpool.gov.uk
53.4055,-2.97696,L3 5UL,Spindles Health & Leisure (liverpool),http://www.britanniahotels.com
53.39594,-2.90385,L15 6UZ,King David High School,http://www.kingdavidcampus.schoolbookings.co.uk
53.37901,-2.97117,L3 4EN,Liverpool Fitness & Wellbeing Centre,http://www.nuffieldhealth.com/gyms/liverpool/?utm_source=website&utm_medium=referral&utm_campaign=loveswimming
53.37872,-2.9159,L18 8AG,Sports Direct Fitness (Liverpool),http://www.sportsdirectfitness.com/clubs/liverpool
53.39284,-2.98546,L3 4DG,Liverpool Watersports Centre,http://www.liverpoolwatersports.org.uk/activities/open-water-swimming
53.41026,-2.90351,L13 5UQ,Broadgreen International School,http://www.broadgreeninternationalschool.com
53.38258,-2.90177,L18 3HS,Calderstones School A Specialist Science College,http://www.calderstones.co.uk
53.42544,-2.92343,L13 0BQ,Lifestyles Peter Lloyd,http://liverpool.gov.uk/lifestyles/find-a-centre/peter-lloyd/
53.42417,-2.97751,L5 5PH,Lifestyles Everton Park,http://www.liverpool.gov.uk
53.42482,-2.91029,L12 1LF,St Edward's College Sports Complex,http://www.st-edwards.liverpool.sch.uk
53.40677,-2.99842,L3 1QW,Harbour Health Club Liverpool,http://www.harbourhealthclubliverpool.com/
53.41107,-2.99656,L3 9BD,The Ark Health And Fitness,http://www.radissonblu.com
53.41243,-2.8881,L14 7NZ,Thingwall Hall Swimming Pool,tel:01512207173
53.42214,-2.99897,L3 0AN,The Titanic Hotel,http://www.titanichotelliverpool.com
53.36393,-2.88899,L19 4TL,Springwood Heath Primary School,http://www.springwoodheath.co.uk
53.39322,-3.02483,CH41 6RN,Europa Pools,http://wirralleisure.co.uk/invigor8-centres/europa-leisure-centre/
53.44458,-2.92005,L11 2XY,Lifestyles Ellergreen,http://www.liverpool.gov.uk/lifestyles/find-a-centre/ellergreen/
53.35822,-2.8943,L19 6PE,Lifestyles Garston,http://www.liverpool.gov.uk
53.41487,-3.02221,CH44 6PX,Guinea Gap Leisure Centre,http://www.wirral.gov.uk
53.44722,-2.96611,L4 6RW,Lifestyles Alsop,http://www.liverpool.gov.uk/leisure_and_culture/sports/leisure_centres_and_pools/lifestyles_alsop/index.asp
53.35927,-3.00705,CH63 7LF,The Oval Leisure Centre,http://www.wirral.gov.uk
53.34931,-2.98579,CH62 4UE,Velocity Health & Fitness (Wirral),http://www.village-hotels.co.uk
53.44748,-2.90687,L11 4SG,De La Salle Academy,http://www.de-la-salle.co.uk
53.35614,-2.87228,L24 9GQ,DW Fitness First (Liverpool),http://www.dwfitnessfirst.com/find-a-gym/liverpool/
53.34085,-2.97571,CH62 3PN,DW Fitness First (Bromborough),http://www.dwfitnessfirst.com/find-a-gym/bromborough/
53.43582,-2.86593,L28 1AB,Volair Stockbridge,http://volair.org.uk/centres/stockbridge-village-neighbourhood-centre/
53.34799,-2.88253,L24 8QD,David Lloyd Club (Liverpool Speke),http://www.davidlloyd.co.uk
53.38788,-3.05025,CH43 1TY,Birkenhead High School Academy,http://www.birkenheadhigh.gdst.net
53.45638,-2.99407,L20 5JJ,Bootle Leisure Centre,http://www.sefton.gov.uk/sport-leisure/leisure-centres/bootle-leisure-centre.aspx
53.4148,-2.82504,L36 6EG,Knowsley Leisure And Culture Park,http://volair.org.uk/centres/knowsley-leisure-culture-park/
53.46353,-2.87647,L34 9HA,Leisure Club @ Suites Hotel,tel:01515495444
53.40389,-2.81153,L35 1RZ,Velocity Health & Fitness (Liverpool),http://www.village-hotels.co.uk
53.36365,-2.82202,L26 0TY,Halewood Leisure Centre,http://volair.org.uk/centres/volair-halewood/
53.36496,-3.06633,CH43 3DU,Total Fitness (Prenton),http://www.totalfitness.co.uk/clubs/prenton/
53.34259,-2.84267,L24 0TR,Lifestyles Austin Rawlinson,http://liverpool.gov.uk/lifestyles/find-a-centre/austin-rawlinson/
53.37162,-3.07487,CH49 5LE,Foxfield School,http://www.foxfieldschool.co.uk
53.37929,-3.08284,CH49 8EU,Woodchurch Leisure Centre,http://www.wirral.gov.uk
53.47851,-2.88463,L32 8SA,Kirkby Leisure Centre,http://volair.org.uk/centres/kirkby-leisure-centre/
53.4784,-2.87017,L33 7ET,David Lloyd Club (Liverpool Knowsley),http://www.davidlloyd.co.uk
53.41414,-3.09561,CH46 1PF,Leasowe Leisure Centre,http://wirralleisure.co.uk/invigor8-centres/leasowe-leisure-centre/
53.48974,-2.9568,L30 7PT,Total Fitness (Aintree),http://www.totalfitness.co.uk/clubs/aintree-sefton/
53.48377,-3.02512,L23 0QP,Merchant Taylors' School,http://www.merchanttaylors.com/ian-robinson/
53.31849,-3.0498,CH63 1JF,Thornton Hall Country Health Club,http://www.thorntonhallhealthclub.com
53.48311,-3.04329,L23 6SX,Crosby Leisure Centre,http://www.leisurecentre.com/crosby-leisure-centre
53.50736,-2.9455,L31 7BB,Meadows Leisure Centre,http://www.sefton.gov.uk/sport-leisure/leisure-centres/meadows.aspx
53.28926,-2.89651,CH65 2AL,Waterways Leisure Club,http://www.hiellesmereport.com/facilities/waterways_leisure_club.php
53.28533,-2.96275,CH66 4PS,Woodhey House Hotel,http://www.woodheyhouse-hotel-chester.com
53.3705,-2.75217,WA8 7HF,Chesnut Lodge School,http://www.chesnutlodge.net
53.29734,-3.05402,CH64 9NQ,Neston Recreation Centre,http://www.brioleisure.org/centres/neston-recreation-centre
53.45887,-2.75655,WA10 6RP,Ruskin Health And Fitness Club,http://www.ruskinsthelens.com
53.45517,-2.75,WA10 2LT,Queens Park Health And Fitness,http://www.sthelens.gov.uk
53.36372,-2.73287,WA8 7QH,Kingsway Leisure Centre,http://kingsway.activehalton.co.uk/
53.44995,-2.73679,WA10 1NG,Pyramids Leisure Club,http://www.pyramidleisureclub.com
53.36759,-3.16263,CH48 8AS,Calday Grange Swimming Pool,http://www.caldaypool.org.uk
53.39733,-3.16899,CH47 0LL,Kingsmead School,http://www.kingsmeadschool.com
53.37118,-2.72139,WA8 6LS,DW Fitness First (Widnes),http://www.dwfitnessfirst.com/find-a-gym/widnes/
53.26247,-2.9852,CH66 9PB,Vital Health & Wellbeing (craxton Wood Hotel),http://www.vitalhealthandwellbeing.co.uk
53.26361,-2.89155,CH65 9JN,David Lloyd Club (Cheshire Oaks),http://www.davidlloyd.co.uk/clubs/cheshire-oaks/
53.26361,-2.89155,CH65 9LB,Ellesmere Port Sports Village,http://www.brioleisure.org/centres/ellesmere-port-sports-village
53.34182,-2.72731,WA7 1BY,Runcorn Swimming Pool,http://www.pfpleisure.org
53.37358,-3.18241,CH48 4HX,West Kirby Concourse Leisure Centre,http://www.wirral.gov.uk
53.45261,-2.71775,WA9 1BQ,Parr Swimming Pool And Fitness Centre,http://goactive.sthelens.gov.uk
53.44923,-2.70486,WA9 1TB,Lansbury Bridge School And Sports College,http://www.lansburybridge.st-helens.sch.uk
53.54741,-3.05413,L37 6BR,Sports Direct Fitness (Formby),http://www.sportsdirectfitness.com
53.31484,-2.69996,WA7 3HB,Beechwood Community Centre,http://www.beechwoodcentre.co.uk/
53.55989,-2.87338,L39 4QP,Edge Hill Sport,http://www.edgehill.ac.uk/edgehillsport/swimming/
53.40017,-2.66094,WA5 3AA,Great Sankey Leisure Centre,http://livewirewarrington.co.uk/leisure/
53.28678,-2.72545,WA6 6HH,Best Western Forest Hills Hotel & Leisure Club,http://www.foresthillshotel.com
53.38664,-2.65598,WA5 2EY,Penketh Parish Council Pool & Community Centre,http://www.penkethparishcouncil.co.uk/simming_pool.html
53.31164,-2.69409,WA7 3HA,You Fit Runcorn,http://youfitclubs.co.uk/club/runcorn/
53.55552,-3.06249,L37 4AB,Formby Pool,http://www.formbypool.co.uk
53.56778,-2.89006,L39 3BY,Park Pool,https://www.westlancsleisure.com/park-pool/?utm_source=website&utm_medium=referral&utm_campaign=loveswimming
53.2199,-2.92466,CH1 6NE,Crabwall Manor Spa & Leisure,http://www.akkeronhotels.com
53.32026,-2.67082,WA7 6EP,Brookvale Recreation Centre,http://www.dcleisurecentres.co.uk
53.21684,-2.91821,CH1 6NN,Mollington Health & Leisure Club,http://www.brook-hotels.co.uk
53.5505,-2.77539,WN8 6LT,Nye Bevan Pool,https://www.westlancsleisure.com/nye-bevan-pool/?utm_source=website&utm_medium=referral&utm_campaign=loveswimming
53.244526,-2.772846,WA6 0PE,Manley Mere,http://www.manleymere.co.uk/swimming/
53.55358,-2.77539,WN8 6LU,Bannatyne Health Club (Skelmersdale),http://www.bannatyne.co.uk/health-club/skelmersdale/
53.25014,-3.13596,CH6 5ER,The Jade Jones Pavilion,tel:01352704301
53.38767,-2.6249,WA5 1HH,David Lloyd Club (Warrington),http://www.davidlloyd.co.uk/clubs/warrington
53.33055,-2.64198,WA4 4BB,Spindles Health & Leisure (Warrington),http://www.britanniahotels.com
53.58874,-2.90463,L40 8HB,Hurlston Hall Golf And Country Club,http://www.hurlstonhall.co.uk
53.58131,-3.04131,L37 0AB,Formby Hall Golf Resort And Spa,http://www.formbyhallgolfclub.co.uk
53.21363,-3.04814,CH5 4HA,Connah's Quay Swimming Pool,http://www.flintshire.gov.uk
53.47294,-2.63772,WA11 9SG,Spa Naturel (Mercure Haydock Hotel & Spa),http://www.spanaturelfitness.com/spa/haydock-hotel
53.20637,-2.85433,CH2 3PD,The Club And Spa Chester,http://www.theclubandspachester.co.uk
53.46002,-2.6257,WA12 0AG,Selwyn Jones Sports Centre,http://www.sthelens.gov.uk
53.20005,-2.89406,CH2 1AQ,Total Fitness (Chester),http://www.totalfitness.co.uk/clubs/chester/
53.47769,-2.63467,WA12 0JG,You Fit Haydock,http://youfitclubs.co.uk/club/haydock/
53.19865,-2.89806,CH1 4BJ,University Of Chester (chester Campus),http://www.chester.ac.uk
53.49362,-2.64498,WN4 9TP,Ashton Leisure Centre,http://www.inspiringhealthylifestyles.org/wigan/leisure-centres/ashton/
53.19606,-2.891,CH2 2AU,Northgate Arena,http://www.brioleisure.org/centres/northgate-arena
53.19387,-2.88429,CH1 3NF,Mill Hotel Health Club,http://www.millhotel.com
53.38318,-2.59547,WA1 1QA,Velocity Health & Fitness (Warrington),http://www.village-hotels.co.uk
53.27296,-3.22335,CH8 7TQ,Holywell Leisure Centre,http://www.flintshire.gov.uk
53.19035,-2.89454,CH1 2BD,Club Moativation (chester),http://www.clubmoativation.co.uk
53.19089,-2.8842,CH1 1QP,Chester City Baths,http://www.chesterswimming.talktalk.net
53.38796,-2.58949,WA1 2AS,DW Fitness First (Warrington),http://www.dwfitnessfirst.com/find-a-gym/warrington/
53.40494,-2.58796,WA2 8HE,Orford Jubilee Neighbourhood Hub,http://livewirewarrington.co.uk/leisure/gym/280-orford-jubilee-neighbourhood-hub-fitness-suite-opening-times
53.51726,-2.64802,WN3 6XD,Total Fitness (Wigan),http://www.totalfitness.co.uk/clubs/wigan/
53.19037,-3.05276,CH5 3YB,Village Leisure Club (Chester St David's),http://www.village-fit.com
53.18512,-2.8482,CH3 5QL,Feel Good Health Club (mercure Chester Abbots Well Hotel),http://www.mercurechester.co.uk/health-club
53.36373,-2.57513,WA4 3AE,Broomfields Leisure Centre,http://livewirewarrington.co.uk/leisure/
53.1842,-2.83683,CH3 7AS,Christleton Sports Centre,tel:01244336664
53.17635,-2.89526,CH4 7QP,Chester Fitness & Wellbeing Centre,http://www.nuffieldhealth.com/gyms/chester/?utm_source=website&utm_medium=referral&utm_campaign=loveswimming
53.54952,-2.65843,WN5 0UN,DW Fitness First (Wigan),http://www.dwfitnessfirst.com/find-a-gym/wigan/
53.33989,-2.57098,WA4 4NS,The Park Royal,http://www.qhotels.co.uk
53.16785,-2.89995,CH4 7QL,The King's School,http://www.kingschester.co.uk
53.17277,-2.82953,CH3 6AD,Rowton Hall Health Club,http://www.rowtonhall.co.uk
53.54473,-2.62928,WN1 1NJ,Wigan Life Centre,http://www.inspiringhealthylifestyles.org/wigan/leisure-centres/wigan-life-centre/
53.15806,-2.91098,CH4 9DL,You Fit Chester,http://youfitclubs.co.uk/club/chester/
53.17188,-3.08314,CH7 3HQ,Buckley Leisure Centre,tel:01244546458
53.16183,-2.8621,CH3 6EA,Old Hall Country Club & Spa,http://www.oldhallcountryclub.com
53.47251,-2.55589,WA3 2AN,Gymetc. (lowton),http://www.gymetc.co.uk
53.59539,-2.7062,WN6 9PB,Wrightington Hotel & Country Club,http://www.wrightingtonhotel.co.uk
53.40017,-2.53558,WA1 4PN,Woolston Neighbourhood Hub,http://livewirewarrington.co.uk/leisure/our-locations
53.58909,-2.68518,WN6 0SR,Spindles Health & Leisure (wigan),http://www.britanniahotels.com
53.64546,-3.02094,PR8 1RX,Dunes Splash World,http://www.sefton.gov.uk/sport-leisure/leisure-centres/dunes-splash-world.aspx
53.64724,-3.01009,PR8 1RB,Royal Clifton Health Club,http://www.royalclifton.co.uk
53.64775,-3.00774,PR8 1NZ,Spindles Health & Leisure (southport),http://www.britanniahotels.com
53.65085,-3.00607,PR9 0DS,Victoria Health & Leisure Club,http://www.victorialeisure.co.uk
53.65408,-3.01146,PR8 1SQ,DW Fitness First (Southport),http://www.dwfitnessfirst.com/find-a-gym/southport/
53.26001,-2.57473,CW8 3HY,Weaverham Community Swimming Pool,http://www.fineswim.co.uk
53.48987,-2.53083,WN7 4JY,Leigh Leisure Centre,http://www.inspiringhealthylifestyles.org/wigan/leisure-centres/leigh/
53.53418,-2.56457,WN2 3QN,Hindley Pool and Leisure Centre,http://www.inspiringhealthylifestyles.org/wigan/leisure-centres/hindley/
53.16039,-3.13797,CH7 1HT,Mold Sports Centre,tel:01352756117
53.13077,-2.92922,CH4 9DG,Spa By Kasia,http://www.spabykasia.co.uk
53.49953,-2.5278,WN7 5SJ,DW Fitness First (Leigh),http://www.dwfitnessfirst.com/find-a-gym/leigh/
53.59255,-2.63487,WN1 2XN,Vital Health & Wellbeing (Kilhey Court),http://www.macdonaldhotels.co.uk
53.527,-2.54785,WN2 4HD,Body Image Fitness Centre (wigan),#
53.66794,-2.90429,PR9 8DF,Riverside Holiday Park,#
53.67377,-2.9625,PR9 9YF,Marshside Health Club And Swims'cool',http://www.facebook.com/swimscool
53.48081,-2.50114,WN7 3XQ,The Escape Zone (leigh),http://www.escape-zone.co.uk
53.11859,-2.94274,LL12 0AY,The Spa At Llyndir Hall,http://www.feathers.uk.com/llyndir
53.63466,-2.69495,PR7 5LP,Park Hall Leisure Club,http://www.lavenderhotels.co.uk
53.51655,-2.50866,M46 0PJ,Howe Bridge Leisure Centre,http://www.howebridge.org/
53.34188,-3.41349,LL19 7EY,Nova Centre,http://www.prestatynnova.co.uk
53.37861,-2.45936,WA13 0RB,Lymm Leisure Centre,http://www.lymmhigh.org.uk
53.57746,-2.56184,BL6 5RU,Feel Good Health Club (Mercure Bolton Georgian House Hotel),http://www.mercurebolton.co.uk/health-club
53.16145,-2.65708,CW6 0DJ,Vital Health & Wellbeing (portal Hotel - Golf And Spa),http://www.macdonaldhotels.co.uk/theportal/leisure/index.htm
53.26093,-2.50912,CW9 5QJ,Northwich Memorial Court,http://www.brioleisure.org
53.68452,-2.83118,PR4 6AQ,Tarleton Academy,http://www.tarletonacademy.org
53.25,-2.51549,CW9 8AF,Sir John Deane's College,http://www.sjd.ac.uk
53.54863,-2.51709,BL5 3BZ,Westhoughton Community Leisure Centre,https://www.boltonleisure.com/westhoughton-community-leisure-centre/?utm_source=website&utm_medium=referral&utm_campaign=loveswimming
53.51533,-2.47325,M29 8EG,The Pellican Centre,http://www.pelicantyldesley.co.uk
53.57987,-2.53445,BL6 6SF,The Bolton Whites Hotel,http://www.whiteshotel.co.uk
53.4148,-2.42714,M31 4ES,Partington Sports Village,http://traffordleisure.co.uk/
53.59784,-2.54278,BL6 5PY,Horwich Leisure Centre,https://www.boltonleisure.com/horwich-leisure-centre/?utm_source=website&utm_medium=referral&utm_campaign=loveswimming
53.44405,-2.42094,M44 6BR,Irlam And Cadishead Leisure Centre,http://www.salfordcommunityleisure.co.uk/sport/locations/irlam-and-cadishead-leisure-centre
53.65945,-2.62899,PR7 1EX,All Seasons Leisure Centre,https://chorley.gov.uk/leisurecentres
53.18907,-2.52822,CW7 1AD,Winsford Lifestyle Centre,http://www.brioleisure.org
53.07624,-3.0266,LL11 4HG,Gwyn Evans Leisure & Activity Centre,http://www.freedom-leisure.co.uk/centres/gwyn-evans-leisure-and-activity-centre/?utm_source=website&utm_medium=referral&utm_campaign=loveswimming
53.31998,-3.47534,LL18 4BY,Rhyl Leisure Centre,http://www.denbighshireleisure.co.uk
53.69047,-2.69983,PR25 2EX,Leyland Leisure Centre,http://www.southribbleleisure.com/leyland
53.5676,-2.47426,BL3 4NG,Ladybridge High School And Sports College,http://www.ladybridgehigh.co.uk
53.33251,-2.40571,WA16 6LJ,The Mere,http://www.meregolf.co.uk
53.69316,-2.69383,PR25 2LF,Gymetc. (leyland),http://www.gymetc.co.uk
53.074,-2.80764,CH3 9DQ,Carden Country Club,http://www.cardenpark.co.uk
53.69508,-2.68035,PR25 4JX,The Leyland Hotel Leisure Club,http://www.feathers.uk.com
53.68313,-2.64036,PR6 7PP,Shaw Hill Hotel Golf & Country Club,http://www.shaw-hill.co.uk
53.31959,-2.39288,WA16 0SU,Cottons Spa,http://www.shirehotels.co.uk/our-hotels/cottons
53.67789,-2.62096,PR6 8AB,David Lloyd Club (Chorley),http://www.davidlloyd.co.uk
53.05605,-2.97319,LL13 9ES,Rhosnesni Leisure & Activity Centre,http://www.freedom-leisure.co.uk/centres/rhosnesni-leisure-and-activity-centre/?utm_source=website&utm_medium=referral&utm_campaign=loveswimming
53.5796,-2.45449,BL1 4PA,Bolton School Boys' Division,http://www.boys.bolton.sch.uk
53.05603,-3.00668,LL11 2BA,DW Fitness First (Wrexham),http://www.dwfitnessfirst.com/find-a-gym/wrexham/
53.45041,-2.37092,M41 5RR,Move Urmston,https://twmove.co.uk/
53.52099,-2.40167,M28 3AB,Worsley Leisure Centre,http://www.salfordcommunityleisure.co.uk/sport/locations/worsley-leisure-centre
53.50539,-2.39089,M28 2QT,Marriott Hotel & Country Club (Worsley Park),http://www.marriott.co.uk/hotels/hotel-information/fitness-center/mangs-worsley-park-marriott-hotel-and-country-club/
53.52852,-2.40242,M28 3EE,Total Fitness (Walkden),http://www.totalfitness.co.uk/clubs/walkden/
53.30153,-2.38365,WA16 0BL,Knutsford Leisure Centre,http://everybody.org.uk/locations/knutsford/
53.57417,-2.43502,BL3 5BN,Bolton One (Jason Kenny Centre),https://www.boltonleisure.com/the-jason-kenny-centre/?utm_source=website&utm_medium=referral&utm_campaign=loveswimming
53.04708,-2.99069,LL13 8DH,Wrexham Waterworld,http://www.freedom-leisure.co.uk/centres/wrexham-waterworld/?utm_source=website&utm_medium=referral&utm_campaign=loveswimming
53.73311,-2.76417,PR4 5SN,Hutton Church Of England Grammar School,http://www.hutton.lans.sch.uk
53.37624,-2.35426,WA14 2HT,Mercure Altrincham Bowdon Hall,http://www.hotels-altrincham.com
53.58134,-2.43866,BL1 4AL,David Lloyd Club (Bolton),http://www.davidlloyd.co.uk/clubs/bolton/
53.38422,-2.3515,WA14 2DE,Total Fitness (Altrincham),http://www.totalfitness.co.uk/clubs/altrincham/
53.1146,-3.29765,LL15 1EG,Ruthin Leisure Centre,http://www.denbighshireleisure.co.uk
53.74776,-3.03308,FY8 1SW,St Annes Ymca Pool & Gym,NULL
53.74837,-3.03168,FY8 1LX,Dalmeny Hotel And Leisure,http://www.dalmenyhotel.co.uk
53.59991,-2.45344,BL1 6JS,Smithills Community Sports Centre,http://www.sportsmithills.co.uk
53.74863,-3.03193,FY8 1LU,Nivens Health Club,http://www.innontheprom.com
53.46999,-2.36013,M17 8RH,David Lloyd Club (Manchester),http://www.davidlloyd.co.uk
53.58921,-2.44042,BL1 3DX,Jubilee Pool (Bolton),tel:01204334443
53.38677,-2.34692,WA15 8EW,Altrincham Leisure Centre,http://www.traffordleisure.co.uk
53.04278,-3.01192,LL13 7UB,Clywedog Sports Centre,http://www.freedom-leisure.co.uk/centres/clywedog-leisure-and-activity-centre/?utm_source=website&utm_medium=referral&utm_campaign=loveswimming
53.58263,-2.42961,BL1 2EW,Leisure Club @ Bolton,http://www.holidayinn.com
53.58017,-2.42711,BL1 2RU,The Splash Academy Centre,http://www.thesplashacademy.co.uk/
53.54763,-2.39797,BL4 9DZ,Farnworth Leisure Centre,https://www.boltonleisure.com/farnworth-leisure-centre/?utm_source=website&utm_medium=referral&utm_campaign=loveswimming
53.56933,-2.41572,BL3 2NE,DW Fitness First (Bolton),http://www.dwfitnessfirst.com/find-a-gym/bolton/
53.55216,-2.40059,BL4 7ED,Bodywise Ladies Health Club (ladies Only),#
53.68573,-2.568,PR6 8QU,Brinscall Swimming Pool,https://chorley.gov.uk/leisurecentres
53.48418,-2.34908,M30 0QT,The Links Resource Centre,http://www.linksresourcecentre.com/
53.6016,-2.4313,BL1 8TT,Total Fitness (Bolton),http://www.totalfitness.co.uk/clubs/bolton/
53.59719,-2.42395,BL1 8TS,Nuffield Health Fitness And Wellbeing Gym,http://www.nuffieldhealth.com/gyms/bolton/services/swimming-lessons/?utm_source=website&utm_medium=referral&utm_campaign=loveswimming
53.42533,-2.32613,M33 7QY,Sports Direct Fitness (sale),http://www.sportsdirectfitness.com
53.48244,-2.33879,M30 0DD,Eccles Leisure Centre,http://www.salfordcommunityleisure.co.uk/sport/locations/eccles-leisure-centre
53.41529,-2.31874,M33 3NL,DW Fitness First (Brooklands Sale),http://www.dwfitnessfirst.com/find-a-gym/brooklands-sale/
53.75077,-2.74096,PR1 0JE,Penwortham Leisure Centre,http://www.southribbleleisure.com/penwortham_lc
53.60723,-2.42422,BL1 8SN,Sharples Community Leisure Centre,http://www.sharplesschool.co.uk/healthhub/
53.42466,-2.31595,M33 2AL,Sale Leisure Centre,http://www.traffordleisure.co.uk
53.38783,-2.3144,WA15 7AF,Hale Country Club And Spa,http://www.halecountryclub.co.uk
53.73042,-2.64999,PR5 6YJ,Bamber Bridge Leisure Centre,http://www.southribbleleisure.com/bamber_bridge
53.51617,-2.34372,M27 9SZ,Swinton And Pendlebury Leisure Centre,http://www.salfordcommunityleisure.co.uk/sport/locations/swinton-and-pendlebury-leisure-centre
53.60216,-2.40962,BL2 3BP,Canon Slade Cofe School,http://www.canon-slade.bolton.sch.uk
53.77759,-2.89452,PR4 2PR,Sport And Leisure (ribby Hall Village),http://www.ribbyhall.co.uk
53.61401,-2.41271,BL7 9LT,Turton Sports Centre,http://www.tmac.uk.com/sportscentre
53.62204,-2.42101,BL7 9PZ,Spa Naturel (Mercure Bolton Last Drop Village Hotel And Spa),http://www.spanaturel.co.uk
53.76028,-2.72702,PR2 2YQ,DW Fitness First (Preston),http://www.dwfitnessfirst.com/find-a-gym/preston/
53.74892,-2.67738,PR5 4AW,Preston Fitness & Wellbeing Gym,http://www.nuffieldhealth.com/gyms/preston/?utm_source=website&utm_medium=referral&utm_campaign=loveswimming
53.36422,-2.29783,WA15 8XW,Marriott Leisure Club (manchester Airport),http://www.marriottleisure.co.uk
53.76071,-2.71949,PR1 8UY,Total Fitness (Preston),http://www.totalfitness.co.uk/clubs/preston/
53.21122,-2.37585,CW4 8EW,Club At De Vere Cranage Estate,http://www.phcompany.com/de-vere/cranage-estate/gym-pool
53.78321,-2.87906,PR4 2HA,Rural Splash YMCA Kirkham,http://ymcayactive.org/fitness-lifestyle/centres-facilities/
53.42874,-2.29334,M33 2LX,Open Swim UK,http://www.openswim.org.uk
53.45833,-2.29267,M32 0ZS,Stretford Sports Village (chester Centre),http://www.traffordleisure.co.uk
53.47079,-2.29544,M50 3AZ,Uswim Dock 9,https://www.uswimopenwater.com/salford-quays
53.28618,-3.57643,LL22 7HT,Abergele Leisure Centre,http://www.conwy.gov.uk
53.47075,-2.29306,M50 3AH,Virgin Active Club (Salford Quays),http://www.virginactive.co.uk/clubs/salford-quays
53.09915,-2.50962,CW5 6DQ,Rookery Hall Health Club & Spa,http://www.handpickedhotels.co.uk
53.30337,-2.29932,WA16 7RN,Cheshire Health Club & Spa,http://www.cheshirehealthclub.co.uk
53.36503,-2.27541,M90 3RA,Pace Health Club (manchester),tel:01614905000
53.79507,-3.0204,FY4 4XL,DW Fitness First (Blackpool),http://www.dwfitnessfirst.com/find-a-gym/blackpool/
53.34329,-2.27676,SK9 4LR,Spindles Health & Leisure (Airport Inn Manchester),http://www.britanniahotels.com/hotels/airport-inn-manchester/health-leisure
53.48238,-2.28465,M5 4HU,Clarendon Leisure Centre,http://www.salfordcommunityleisure.co.uk/sport/locations/clarendon-leisure-centre
53.79499,-3.05686,FY4 1BB,Sandcastle Water Park,http://www.sandcastle-waterpark.co.uk
53.76926,-2.67845,PR1 5EP,West View Leisure Centre,http://www.better.org.uk/leisure-centre/preston/west-view-leisure-centre/?utm_source=website&utm_medium=referral&utm_campaign=loveswimming
53.79699,-3.0426,FY4 2AP,Palatine Leisure Centre,http://www.blackpool.gov.uk/residents/sports-and-leisure/venues/palatine-leisure-centre.aspx#ad-image-0
53.40713,-2.26568,M22 4FH,Britannia Country House Hotel & Spa,https://www.britanniahotels.com/hotels/the-britannia-country-house-hotel
53.56301,-2.32314,M26 2SZ,Radcliffe Leisure Centre,http://www.bury.gov.uk
53.38054,-2.26451,M22 5RX,Wythenshawe Forum,http://www.everyoneactive.com/centre/wythenshawe-forum/?utm_source=Web&utm_medium=referral&utm_campaign=SwimEngland
53.08529,-2.50282,CW5 6PD,Alvaston Hall Country Club,http://www.warnerleisurehotels.co.uk
53.69575,-2.46938,BB3 1PW,Darwen Leisure Centre,http://bwdleisure.com/our-centres/darwen-leisure-centre/
53.78805,-2.71839,PR2 9YA,Fulwood Leisure Centre,http://www.better.org.uk/leisure-centre/preston/fulwood-leisure-centre/?utm_source=website&utm_medium=referral&utm_campaign=loveswimming
53.06963,-2.52357,CW5 5LS,Nantwich Swimming Pool & Fitness Centre,http://everybody.org.uk/locations/nantwich/
53.41613,-2.24812,M20 2WG,Spindles Health & Leisure (Manchester Didsbury),http://www.britanniahotels.com
53.80813,-3.04827,FY1 5EP,Bannatyne Health Club (Blackpool),http://www.bannatyne.co.uk/health-club/blackpool/
53.55302,-2.29637,M45 7TA,Total Fitness (Whitefield),http://www.totalfitness.co.uk/clubs/whitefield/
53.47652,-2.25687,M3 4JR,Y Club (Manchester),http://www.yclub.org.uk
53.8126,-3.01068,FY3 8LL,Velocity Health & Fitness (Blackpool),http://www.village-hotels.co.uk
53.43458,-2.24588,M20 1HD,Hough End Leisure Centre,http://www.better.org.uk/leisure-centre/manchester/hough-end/?utm_source=website&utm_medium=referral&utm_campaign=loveswimming
53.50108,-2.2614,M7 2DN,Broughton Leisure Centre,http://www.salfordcommunityleisure.co.uk/sport/locations/broughton-leisure-centre
53.46038,-2.2474,M15 5NN,Moss Side Leisure Centre,http://www.better.org.uk/leisure-centre/manchester/moss-side/?utm_source=website&utm_medium=referral&utm_campaign=loveswimming
53.47506,-2.25121,M3 4LQ,Livingwell Health Club (Manchester Deansgate),http://www.livingwell.com/clubs/manchester-deansgate/
53.31088,-2.25521,SK9 7RZ,MyOpenWaterSwim - Manchester,https://myopenwaterswim.co.uk/north-west/
53.602,-2.32624,BL8 1PU,Stables Fitness & Leisure Club,http://www.lavenderhotels.co.uk
52.98333,-3.06271,LL14 3HL,Plas Madoc Leisure Centre,http://www.wrexham.gov.uk
53.47881,-2.25049,M3 3JU,Bannatyne Health Club (Manchester Quay Street),http://www.bannatyne.co.uk/health-club/manchester-quay-st
53.52901,-2.27149,M25 1ES,Ivy Bank Swim School,tel:01617732629
53.47784,-2.24765,M2 5GP,Sienna For Body And Mind,http://www.siennaspa.co.uk
53.09472,-2.44869,CW1 2BB,Crewe Lifestyle Centre,http://everybody.org.uk/locations/crewe/swimming-lessons/
53.47711,-2.24506,M60 2DS,The Midland,http://www.qhotels.co.uk
53.14547,-2.37421,CW11 1FH,Sandbach Leisure Centre,http://everybody.org.uk/centres/sblc/
53.4755,-2.24327,M1 5FW,Bannatyne Health Club (Manchester Chepstow St),http://www.bannatyne.co.uk/health-club/manchester-chepstow-st/
53.48105,-2.24357,M2 4LQ,Sports Direct Fitness (manchester),tel:08437771127
53.81869,-3.04792,FY1 3ER,Reform Health Studio,http://www.reformhealthclub.co.uk
53.72248,-2.48002,BB3 0PR,Splash (Riverside),http://www.thehub-riverside.co.uk/splash/
53.14286,-2.37077,CW11 3NS,Sandbach School,http://www.sandbachschool.cheshire.sch.uk
53.82396,-3.001,FY3 0AX,Blackpool Newton Hall Indoor Bowls Club,#
53.48518,-2.24075,M4 2BS,Manchester Printworks Fitness & Wellbeing Centre,http://www.nuffieldhealth.com/gyms/manchester-printworks/?utm_source=website&utm_medium=referral&utm_campaign=loveswimming
53.51933,-2.25465,M8 4HU,Park Swim School,http://www.parkswimschool.com
53.46888,-2.2352,M13 9SS,Manchester Aquatics Centre,http://www.better.org.uk/leisure-centre/manchester/manchester-aquatics-centre/?utm_source=website&utm_medium=referral&utm_campaign=loveswimming
53.48949,-2.24104,M4 4EW,Pace Health Club & Nu Spa,http://www.pacehealthandnuspa.co.uk
53.47625,-2.23654,M1 3NR,Bannatyne Health Club (Manchester Whitworth St),http://www.bannatyne.co.uk/health-club/manchester-whitworth-st/
53.59305,-2.3013,BL9 0EZ,Castle Leisure Centre,http://www.bury.gov.uk/index.aspx?articleid=11378
53.48216,-2.23689,M4 1SH,Spindles Health & Leisure (manchester),http://www.britanniahotels.com
53.09633,-2.43115,CW1 6DG,Total Fitness (Crewe),http://www.totalfitness.co.uk/clubs/crewe/
53.48009,-2.23525,M1 6DP,Just Gym (manchester),http://www.thistlehotels.com
53.80766,-2.72202,PR3 5JB,Marriott Leisure Club (preston),http://www.marriottleisure.co.uk
53.59013,-2.29513,BL9 0BT,DW Fitness First (Bury),http://www.dwfitnessfirst.com/find-a-gym/bury/
53.40799,-2.22044,M20 5PG,Nuffield Health Manchester Didsbury,http://www.nuffieldhealth.com/gyms/didsbury/services/swimming-lessons/?utm_source=website&utm_medium=referral&utm_campaign=loveswimming
53.40374,-2.22018,M20 5WZ,Waterside Hotel & Leisure Club,http://www.watersidehotel.co.uk
53.75479,-2.53361,BB2 6QU,Westholme School,http://www.westholmeschool.com
53.32727,-2.22785,SK9 1BU,Wilmslow Leisure Centre,http://everybody.org.uk/centres/wlc/
53.37765,-2.21842,SK8 3FL,David Lloyd Club (Cheadle),http://www.davidlloyd.co.uk
53.82729,-3.05458,FY1 2HB,The Club And Spa At The Imperial Hotel Blackpool,http://www.thehotelcollection.co.uk
53.35808,-2.21689,SK9 3LD,Hallmark Health Club (manchester),http://www.hallmarkhotels.co.uk
53.51239,-2.23576,M8 5UF,Abraham Moss Leisure Centre,http://www.better.org.uk/leisure-centre/manchester/abraham-moss/?utm_source=website&utm_medium=referral&utm_campaign=loveswimming
53.35967,-2.21403,SK8 6RQ,Seashell Trust Centre,http://www.seashelltrust.org.uk
53.8299,-3.05481,FY1 2JQ,Grand Hotel Blackpool,http://www.britanniahotels.com/hotels/grand-hotel-blackpool/health-leisure
53.38609,-2.2098,SK8 1HW,Village Gym (Cheadle),http://www.villagegym.co.uk/locations/cheadle/
53.33748,-2.21663,SK9 2GH,Energie Fitness Club (wilmslow),http://www.energiefitnessclubs.com
53.09318,-2.41713,CW1 5NW,Bannatyne Health Club (Crewe),http://www.bannatyne.co.uk/health-club/crewe/
53.38711,-2.20895,SK8 1JR,Life Leisure Cheadle,http://www.lifeleisure.net/our-centres/cheadle/
53.59059,-2.27617,BL9 7BQ,Velocity Health & Fitness (Manchester Bury),http://www.village-hotels.co.uk
53.7476,-2.48687,BB2 1LQ,Blackburn Sports Leisure Centre,http://bwdleisure.com/our-centres/blackburn-leisure-centre/
53.72746,-2.44616,BB1 2EE,DW Fitness First (Blackburn),http://www.dwfitnessfirst.com/find-a-gym/blackburn/
52.95525,-2.88007,LL13 0LU,Maelor Swimming Pool,http://www.maelorschool.org.uk/swimming-pool-summer-2018-opening-times-and-prices/162
53.75339,-2.49596,BB2 6DF,Queen Elizabeth's Grammar School,http://www.qegs.blackburn.sch.uk
52.97987,-2.68997,SY13 4HA,Vital Health & Wellbeing (hill Valley Hotel),http://www.macdonaldhotels.co.uk/hillvalley
53.84468,-2.97782,FY6 8JP,Gymetc. (poulton Le Fylde),http://www.gymetc.co.uk
53.65193,-2.32335,BL0 9DS,The Old Mill Hotel And Leisure Club,http://www.lavenderhotels.co.uk/the-old-mill
53.35,-2.19699,SK9 3PE,Total Fitness (Wilmslow),http://www.totalfitness.co.uk/clubs/wilmslow/
53.36858,-2.19379,SK8 6EF,Cheadle Hulme School,http://www.cheadlehulmeschool.co.uk
53.55492,-2.23442,M24 4TH,David Lloyd Club (Manchester North),http://www.davidlloyd.co.uk/clubs/manchester-north/
53.446162,-2.191612,M19 3PH,Arcadia Library And Leisure Centre,http://www.better.org.uk/leisure-centre/manchester/arcadia-leisure-centre/?utm_source=website&utm_medium=referral&utm_campaign=loveswimming
53.6517,-2.316,BL0 0PT,Ramsbottom Swimming Pool & Fitness Centre,http://www.bury.gov.uk/index.aspx?articleid=11374
53.51286,-2.20905,M9 4DA,North City Family & Fitness Centre,http://www.better.org.uk/leisure-centre/manchester/north-city/?utm_source=website&utm_medium=referral&utm_campaign=loveswimming
53.08278,-2.40024,CW1 6UZ,Crewe Hall,http://www.qhotels.co.uk
53.47798,-2.19533,M11 3ND,East Manchester Leisure Centre,http://www.better.org.uk/leisure-centre/manchester/east-manchester/?utm_source=website&utm_medium=referral&utm_campaign=loveswimming
53.39985,-2.18374,SK3 0UP,Life Leisure Avondale,http://www.lifeleisure.net/our-centres/avondale/
53.75408,-2.47133,BB1 5HB,Half Fish Hq,http://www.half-fish-training.co.uk/half-fish-hq/
53.84956,-3.03349,FY2 0JG,Moor Park Health & Leisure Centre,http://www.blackpool.gov.uk/residents/sports-and-leisure/venues/moor-park-health-and-leisure-centre.aspx#ad-image-0
53.8533,-2.98589,FY6 7HJ,Poulton Ymca Swimming & Fitness Centre,http://ymcayactive.org/fitness-lifestyle/centres-facilities/
52.96834,-2.68158,SY13 1BA,Whitchurch Swimming Centre,https://www.shropshireleisurecentres.com/whitchurch-swimming-centre/?utm_source=website&utm_medium=referral&utm_campaign=loveswimming
52.93801,-3.05465,LL14 5NF,Chirk Leisure & Activity Centre,http://www.freedom-leisure.co.uk/centres/chirk-leisure-and-activity-centre/?utm_source=website&utm_medium=referral&utm_campaign=loveswimming
53.8584,-3.04837,FY2 9AA,Spindles Health & Leisure (Blackpool),http://www.britanniahotels.com
53.43603,-2.16575,SK5 6DD,Kingfisher Health Club (Reddish),http://www.kingfisherhealthclub.com
53.30895,-2.17729,SK10 4QT,Mottram Hall (Cheshire),tel:08712224686
53.40691,-2.16092,SK1 3TA,Life Leisure Grand Central,tel:01614747766
53.59619,-2.22788,OL10 4TW,Heywood Sports Village,http://www.link4life.org/heywoodvillage
53.55102,-2.19456,M24 1AG,Middleton Arena,http://www.link4life.org
53.43723,-2.15338,SK5 7HD,Reddish Vale Technology College,http://www.reddish.stockport.sch.uk
53.29116,-3.71697,LL29 7SP,Colwyn Leisure Centre,http://www.conwy.gov.uk
53.46513,-2.1519,M18 8RL,Wright Robinson Leisure,http://www.wrightrobinson.co.uk/leisure/
53.37244,-2.14472,SK7 5JW,Life Leisure Hazel Grove,http://www.lifeleisure.net/our-centres/hazel-grove/
53.09991,-2.31923,ST7 2HP,Alsager Leisure Centre,http://www.everybody.org.uk
53.38998,-2.14252,SK2 7AF,Stockport Grammar School,http://www.stockportgrammar.co.uk
53.52048,-2.16717,M40 3LN,Broadway Leisure Centre,http://www.manchestersportandleisure.org
52.91809,-3.02029,SY10 7BD,Saint Martins Sports Centre,http://www.shropshire.gov.uk
53.39892,-2.13462,SK2 6AG,Spindles Health & Leisure (stockport),http://www.britanniahotels.com
52.98696,-3.37111,LL21 9RW,Corwen Leisure Centre,http://www.denbighshireleisure.co.uk
53.27075,-2.1598,SK10 4AF,Macclesfield Leisure Centre,tel:01625383981
52.91209,-2.9065,SY12 9EU,Ellesmere Swimming Centre,tel:01691622027
53.75491,-2.38758,BB5 4EP,Hyndburn Leisure Centre,http://www.hyndburnleisure.co.uk
53.48683,-2.14042,M43 7XU,Active Medlock,http://www.activetameside.com
53.17213,-2.22126,CW12 1LB,Gymetc. (congleton),http://www.gymetc.co.uk
53.50768,-2.14632,M35 9HA,Failsworth Sports Centre,http://www.ocll.co.uk
52.91364,-3.0429,SY11 3EN,Lion Quays Leisure Club,http://www.lionquays.co.uk/spa-leisure/
52.91401,-3.04864,SY11 3EW,Moreton Hall School,http://www.moretonhall.com
53.58052,-2.17423,OL11 2XZ,Spa Naturel (Mercure Manchester Norton Grange Hotel And Spa),tel:01706630788
53.59565,-2.18209,OL11 3AF,Castleton Health and Leisure,https://www.rochdaleonline.co.uk/sites/castleton-health-and-leisure-centre
53.45475,-2.11838,M34 3GU,Active Denton,http://www.tamesidesportstrust.com
53.76822,-2.39019,BB5 5JP,Spa Naturel (Mercure Blackburn Dunkenhalgh Hotel And Spa),http://www.accorhotels.com
53.16486,-2.20821,CW12 1DT,Congleton Leisure Centre,tel:01260387717
53.3442,-2.11333,SK12 1PU,Poynton Leisure Centre,tel:01625876442
53.54762,-2.14157,OL9 0JW,Chadderton Wellbeing Centre,http://www.oclactive.co.uk
53.2794,-2.12788,SK10 2JP,The Tytherington Golf & Country Club,http://www.theclubcompany.com
53.70272,-2.2734,BB4 7SN,Marl Pits Leisure Centre,http://www.rltrust.co.uk
53.48608,-2.11384,OL7 0LY,Velocity Health & Fitness (Manchester Ashton),http://www.village-hotels.co.uk/hotels/manchester-ashton/
53.89613,-3.04528,FY7 8JW,Rossall School,http://www.rossall.org.uk
53.61822,-2.18492,OL11 5EF,Oulder Hill Leisure Complex,http://www.ohlc.co.uk
52.89521,-2.89189,SY12 9AB,Ellesmere College,http://www.ellesmere.com
53.78603,-2.40344,BB6 7AL,Mercer Hall Leisure Centre,http://www.hyndburnleisure.co.uk
53.41388,-2.09725,SK6 4BB,Life Leisure Romiley,http://www.lifeleisure.net/our-centres/romiley/
53.28897,-2.1174,SK10 5EX,Bollington Health And Leisure Centre,http://www.bollingtonleisure.co.uk
53.55801,-2.13769,OL2 5HX,DW Fitness First (Oldham),http://www.dwfitnessfirst.com/find-a-gym/oldham/
53.52949,-2.12258,OL8 4BX,Oldham Hulme Grammar Schools,http://www.hulme-grammar.oldham.sch.uk
53.25749,-2.12367,SK11 6JD,DW Fitness First (Macclesfield),http://www.dwfitnessfirst.com/find-a-gym/macclesfield/
53.5412233,-2.1189646,OL9 6AF,Oldham Leisure Centre,http://oclactive.co.uk/leisure_centres/new-oldham-leisure-centre/
53.48896,-2.098,OL6 7AN,Active Ashton,http://www.tamesidesportstrust.com/ashton_pools_index.htm
53.46471,-2.09161,SK14 4QG,Velocity Health & Fitness (Manchester Hyde),http://www.village-hotels.co.uk/hotels/manchester-hyde/
53.81139,-2.43172,BB7 9HY,Foxfields Country Hotel,http://www.hotels-blackburn.com
53.56644,-2.12172,OL2 6QZ,Royton Leisure Centre,tel:0161 207 7000
53.31543,-2.08738,SK10 5SB,The Club And Spa At The Shrigley Hall Hotel Golf And Country Club,http://www.thehotelcollection.co.uk
53.9069,-2.77756,PR3 1HT,Garstang Swimming Centre,http://www.fyldecoastymca.org
53.61839,-2.14951,OL16 2HZ,Rochdale Leisure Centre,http://www.link4life.org
53.44916,-2.06924,SK14 5PL,Active Hyde,http://www.activetameside.com/active-hyde/
53.29846,-3.80659,LL30 1RS,Bodysgallen Hall Hotel (Restaurant & Spa),http://www.bodysgallen.com
53.32135,-3.81687,LL30 1YR,Llandudno Swimming Centre,http://www.conwy.gov.uk
53.66407,-2.1749,OL12 8BT,Whitworth Leisure Centre,http://www.whitworthleisure.co.uk
53.84727,-2.47131,BB7 9PZ,Stonyhurst College & Sports Club,http://www.stonyhurst.ac.uk
53.32297,-3.82411,LL30 1AP,Mint Condition,http://www.theimperial.co.uk
53.92718,-3.01277,FY7 6HF,YMCA (Fleetwood),http://ymcayactive.org/fitness-lifestyle/centres-facilities/
53.47372,-2.04165,SK15 2RT,Gymetc. (stalybridge),http://www.gymetc.co.uk
53.11726,-2.16607,ST8 7HL,Biddulph Valley Leisure Centre,http://www.leisurecentre.com/biddulph-valley-leisure-centre/
52.85698,-3.0571,SY11 2SZ,Wynnstay Coach House Health & Fitness Club,http://www.wynnstayhotel.com
52.85401,-3.03806,SY11 4QB,Oswestry Leisure Centre,https://www.shropshireleisurecentres.com/oswestry-leisure-centre/?utm_source=website&utm_medium=referral&utm_campaign=loveswimming
53.79936,-2.31683,BB12 8ED,Padiham Leisure Centre,http://www.burnleyleisure.co.uk
53.03925,-2.25159,ST5 7LP,Chesterton Community Sports College,http://www.ccsc.staffs.sch.uk
53.93413,-2.75099,PR3 1BA,Wyresdale Park,https://www.attitudeswimcoaching.org
53.49346,-2.03209,SK15 3ET,Active Copley,http://www.activetameside.com/active-copley/
53.07168,-2.19681,ST6 6JT,New Horizons Sport And Leisure Centre,http://www.stoke.gov.uk/directory_record/331545/new_horizons_sport_and_leisure
52.85891,-2.7265,SY4 5AP,Wem Swimming And Lifestyle Centre,http://www.wemswimmingandlifestylecentre.org.uk
53.0595,-2.20938,ST6 6BE,Everlast Fitness Club (Tunstall),http://www.everlastfitnessclubs.com/clubs/tunstall-stoke
53.28911,-3.85667,LL32 8GA,Langleys Country Club & Health Spa,http://www.aberconwy.co.uk
53.04761,-2.21192,ST6 4LJ,21st Century Leisure,http://www.21stcenturyleisure.co.uk
53.36775,-1.99857,SK22 4BP,New Mills Leisure Centre,http://www.leisurecentre.com/new-mills-leisure-centre
53.05048,-2.19901,ST6 4ET,Dimensions Leisure Centre,http://www.stoke.gov.uk
53.86867,-2.41203,BB7 3LA,Ribblesdale Pool,http://www.ribblevalley.gov.uk/pool
52.90262,-2.48242,TF9 1JT,Market Drayton Swimming & Fitness Centre,https://www.shropshireleisurecentres.com/market-drayton-swimming-fitness-centre/?utm_source=website&utm_medium=referral&utm_campaign=loveswimming
53.13825,-3.7963,LL26 0LS,Llanrwst Swimming Pool,http://www.conwy.gov.uk
53.79135,-2.23893,BB11 2DL,St Peters Centre,http://burnleyleisure.co.uk/centres/st-peters-leisure-centre/
53.80134,-2.25346,BB12 0RT,Crow Wood Leisure,http://www.crowwood.com
53.32475,-1.98538,SK23 7HX,Whaley Bridge Primary School,http://www.wbps.org.uk
53.00823,-2.23181,ST5 2TF,Blackfriars School,http://www.bcfederation.co.uk
53.01242,-2.22238,ST5 1HG,Jubilee 2,http://www.newcastle-staffs.gov.uk/jubilee2/
53.02893,-2.19749,ST1 5PU,Waterworld (stoke-on-trent),http://www.waterworld.co.uk
53.54748,-2.00325,OL3 6HQ,Saddleworth Pool And Leisure Centre,http://www.ocll.co.uk
53.03182,-2.18911,ST1 5NZ,M Club Spa And Fitness (Hanley),http://mclubspaandfitness.co.uk
53.02651,-2.19593,ST1 5BQ,Leisure Club @ Stoke,#
53.0106,-2.21784,ST5 1DB,Newcastle Under Lyme School,http://www.nuls.org.uk
53.02584,-2.17984,ST1 5NB,Quality Fitness,http://www.quality-stokeontrent.com
53.71985,-2.10966,OL14 7DF,Todmorden Sports Centre,http://www.calderdale.gov.uk
53.44983,-1.95373,SK13 7DS,Glossop Pool,http://www.glossopswimmingpool.co.uk
53.81644,-2.2355,BB10 2LF,Oaks Leisure Club,http://www.lavenderhotels.co.uk
52.99722,-2.21145,ST4 6NW,M Club Spa And Fitness (Newcastle),http://mclubspaandfitness.co.uk
53.08758,-3.7989,LL24 0AR,The Waterloo Hotel,http://www.waterloo-hotel.info/leisure-and-beauty/
52.97826,-2.22436,ST5 4DL,You Fit Stoke,http://youfitclubs.co.uk/club/stoke/
53.34015,-1.93391,SK23 6ES,Peak School,#
53.00481,-2.16947,ST4 2RR,Fenton Manor Sports Complex And Shapes,http://www.stoke.gov.uk/fentonmanor
54.00651,-2.78836,LA1 4GJ,Sandpiper Leisure Club,http://www.elh.co.uk
52.9873,-2.17222,ST4 4TU,Stoke Fitness & Wellbeing Centre,http://www.nuffieldhealth.com/gyms/stoke/?utm_source=website&utm_medium=referral&utm_campaign=loveswimming
54.0101,-2.78526,LA1 4YE,Lancaster University Sports Centre,http://www.lancaster.ac.uk/sport/sports-centre/facilities/swimmingpool/
52.97106,-2.19303,ST4 8PQ,Trentham Community Sports Centre,http://www.trenthamacademy.co.uk/sports-centre/facilities-and-hire-options/
53.11027,-2.01969,ST13 6AT,Brough Park Leisure Centre,http://www.leisurecentre.com/brough-park-leisure-centre
53.25828,-1.91758,SK17 6BE,Buxton Swimming And Fitness Centre,http://www.leisurecentre.com/buxton-swimming-and-fitness-centre
52.90871,-3.6022,LL23 7SR,Canolfan Hamdden Penllyn,http://www.gwynedd.gov.uk
53.26098,-1.9154,SK17 6AG,The Club And Spa At The Palace Hotel - Buxton,http://www.thehotelcollection.co.uk
53.85649,-2.18069,BB8 9NP,Pendle Leisure Centre,http://www.pendleleisurecentre.co.uk
52.7609,-2.74675,SY4 3AG,Spa Naturel (Mercure Shrewsbury Albrighton Hall Hotel And Spa),http://www.accorhotels.com
53.92933,-2.28818,BB7 4LJ,Maree Leisure (Gisburn),http://www.mareeleisure.co.uk
52.97163,-2.10164,ST3 7AW,Sandon Primary Academy,http://www.sandonprimaryacademy.com/swimming-at-sandon
54.0552,-2.82273,LA1 5JS,Salt Ayre Sports Centre,http://www.lancaster.gov.uk
52.76241,-3.26885,SY22 5BJ,Llanfyllin Sports Centre,http://www.freedom-leisure.co.uk/centres/llanfyllin-sports-centre/?utm_source=website&utm_medium=referral&utm_campaign=loveswimming
53.6236,-1.87839,HD7 5AB,Colne Valley Leisure Centre,http://www.kirkleesactive.co.uk
54.06386,-2.78672,LA1 3PE,3-1-5 Health Club,http://www.3-1-5.co.uk
54.07105,-2.87356,LA4 4DW,DW Fitness First (Morecambe),http://www.dwfitnessfirst.com/find-a-gym/morecambe/
54.07079,-2.77821,LA1 3RA,You Fit Lancaster,http://youfitclubs.co.uk/club/lancaster/
52.90804,-2.15558,ST15 8JS,Gust Swim School - Centre Of Excellence,http://www.swimteaching.co.uk
52.96829,-2.05956,ST11 9PW,Blythe Bridge High School And Sixth Form,http://www.blythebridge.staffs.sch.uk
52.72803,-2.71549,SY1 4RG,The Shrewsbury Club,http://www.theshrewsburyclub.co.uk
53.91146,-2.17822,BB18 5TB,West Craven Sports Centre,http://www.westcravensportscentre.co.uk
53.7072,-1.91042,HX6 3AB,Sowerby Bridge Swimming Pool And Fitness Centre,http://www.calderdale.gov.uk/leisure/sport-fitness/venue-detail.jsp?venue=6
53.62855,-1.85357,HD7 5UN,Club Titanic,http://www.titanicspa.com
52.70869,-2.91948,SY5 9EP,Castle Country Club,http://www.castlecountryclub.com
52.90072,-2.1458,ST15 8QW,Stone Leisure Centre,http://www.freedom-leisure.co.uk/centres/stonelc/?utm_source=website&utm_medium=referral&utm_campaign=loveswimming
52.70852,-2.7603,SY1 1RU,Quarry Swimming & Fitness Centre,https://www.shropshireleisurecentres.com/the-quarry-swimming-fitness-centre/?utm_source=website&utm_medium=referral&utm_campaign=loveswimming
52.8875,-2.14195,ST15 0BQ,Stone House Hotel,http://www.bespokehotels.com/stonehousehotel
52.70279,-2.76362,SY3 7BA,Shrewsbury School,http://www.shrewsbury.org.uk
53.65393,-1.8367,HD3 4GN,Salendine Nook High School,http://www.snhs.kirklees.sch.uk
53.71165,-1.87813,HX3 0HG,Crossley Heath School,http://www.crossleyheath.calderdale.sch.uk
52.98383,-1.98244,ST10 1HJ,South Moorlands Leisure Centre,http://www.leisurecentre.com/south-moorlands-leisure-centre
52.77193,-2.37727,TF10 7LH,Newport Swimming Pool,http://www.telfordandwrekinleisure.co.uk/newport
52.69206,-2.74991,SY2 6QQ,Bannatyne Health Club (Shrewsbury),http://www.bannatyne.co.uk/health-club/shrewsbury/
53.58149,-1.78097,HD9 3JL,Holmfirth Pool And Fitness Centre,http://www.kal.org.uk/holmfirth
52.99212,-3.93597,LL41 3DW,Blaenau Ffestiniog Swimming Pool,http://www.gwynedd.gov.uk
53.05875,-1.88309,ST10 3HY,Waterhouses C Of E Primary School,http://www.staffordshire.schooljotter.com/waterhouses
53.23315,-4.1225,LL57 2SD,Bangor Swimming Pool,http://www.gwynedd.gov.uk
53.72505,-1.85099,HX3 9XQ,DW Fitness First (Halifax),http://www.dwfitnessfirst.com/find-a-gym/halifax/
53.64351,-1.78959,HD1 4BP,Huddersfield Leisure Centre,http://www.huddersfieldleisure.co.uk/
54.108967,-3.218894,LA14 1YE,Barrow In Furness Fitness & Wellbeing Centre,http://www.nuffieldhealth.com/gyms/barrow-in-furness/?utm_source=website&utm_medium=referral&utm_campaign=loveswimming
53.645792,-1.785035,HD5 9AJ,DW Fitness First (Huddersfield),http://www.dwfitnessfirst.com/find-a-gym/huddersfield/
54.11078,-3.23306,LA14 2GN,DW Fitness First (Barrow),http://www.dwfitnessfirst.com/find-a-gym/barrow-in-furness/
54.12522,-2.76149,LA5 9LS,Carnforth Swimming Pool,http://www.lancaster.gov.uk/carnforthpool
54.11635,-3.2122,LA13 9DT,Life Leisure Barrow Park,http://www.lifeleisurebarrowpark.com
53.21775,-4.14283,LL57 4TJ,DW Fitness First (Bangor),http://www.dwfitnessfirst.com/find-a-gym/bangor/
54.11462,-2.63921,LA2 8LH,Lune Valley Swimming Pool,http://www.lunevalleypool.com/
52.66522,-3.13417,SY21 7DH,Flash Leisure Centre,http://www.freedom-leisure.co.uk/centres/flash-leisure-centre/?utm_source=website&utm_medium=referral&utm_campaign=loveswimming
52.69885,-2.51858,TF1 1LX,Wellington Civic & Leisure Centre,http://www.telfordandwrekinleisure.co.uk/wellington
53.65465,-1.76892,HD1 6PG,Stadium Health & Fitness Club,http://www.kal.org.uk/stadium
53.66609,-1.77132,HD2 1DJ,North Huddersfield Trust School,http://www.nhtschool.co.uk
52.70163,-2.4856,TF1 5NU,Hadley Learning Community,http://www.hadleylearningcommunity.org.uk
52.69617,-2.50275,TF1 2NJ,Life@whitehouse (telford),http://www.whitehousehotels.com
52.70825,-2.44489,TF2 7AB,Oakengates Leisure Centre,http://www.telfordandwrekinleisure.co.uk/oakengates
53.76871,-1.84241,BD13 1AB,Queensbury Swimming Pool,http://www.bradford.gov.uk/sport-and-activities/sports-centres-and-pools/queensbury-pool/
53.63854,-1.74516,HD5 8PQ,Almondbury Sports Centre,http://www.kirklees.gov.uk/almondburysc
54.13965,-2.72117,LA6 1AD,Capernwray Diving Centre,https://www.dive-site.co.uk/swimming/
53.70772,-1.77923,HD6 4AB,Brighouse Swimming Pool And Fitness Centre,http://www.calderdale.gov.uk/v2/sports-and-fitness/venues/brighouse-swimming-pool-and-fitness-centre
54.14846,-2.74539,LA6 1BH,South Lakeland Leisure Village,http://www.pure-leisure.co.uk/parks/south-lakeland-leisure-village/overview/
54.14363,-2.69639,LA6 1AG,Capernwray Hall,http://www.capernwray.org.uk
53.64523,-1.73205,HD5 0AL,Total Fitness (Huddersfield),http://www.totalfitness.co.uk/clubs/huddersfield/
53.7001,-1.75721,HD6 4HW,You Fit Leeds Brighouse,http://youfitclubs.co.uk/club/leedsbrighouse/
53.32921,-1.65389,S32 1DU,Hathersage Outdoor Swimming Pool,http://www.hathersageswimmingpool.co.uk
54.158,-3.18185,LA15 8DA,Dalton Leisure Centre,http://www.daltonleisurecentre.co.uk
52.68221,-2.45292,TF3 4AG,DW Fitness First (Telford),http://www.dwfitnessfirst.com/find-a-gym/telford/
52.68221,-2.45292,TF3 4AG,Telford Fitness & Wellbeing Centre,http://www.nuffieldhealth.com/gyms/telford/?utm_source=website&utm_medium=referral&utm_campaign=loveswimming
52.80569,-2.10837,ST16 3TA,Stafford Leisure Centre,http://www.freedom-leisure.co.uk/centres/staffordleisurecentre/?utm_source=website&utm_medium=referral&utm_campaign=loveswimming
54.17336,-2.92629,LA11 7BG,Abbot Hall Leisure Club,http://www.christianguild.co.uk/abbothall
53.21507,-1.6813,DE45 1DP,St Anselms School,http://www.stanselms.co.uk
54.07132,-2.29118,BD24 0DE,Giggleswick School,http://www.giggleswick.org.uk
52.6803,-2.4489,TF3 4NA,Pace Health Club (telford),http://www.rezidorparkinn.com
53.94484,-2.01278,BD23 2TA,The Leisure Club,http://www.rendezvous-skipton.com
53.9625,-2.04017,BD23 1UD,Craven Swimming Pool And Fitness Centre,http://www.cravendc.gov.uk/craven-leisure/swim/
52.678419,-2.445258,TF1 3BH,Wrekin College Sports Centre,http://www.wrekincollege.com
52.9598,-1.86805,ST14 5HN,Denstone College,http://www.denstonecollege.org
53.87343,-1.90102,BD21 3JN,The Leisure Centre Keighley,http://www.bradford.gov.uk/sport-and-activities/sports-centres-and-pools/the-leisure-centre-keighley/
54.0735,-2.28397,BD24 0BU,Settle Swimming Pool,http://www.settleswimmingpool.co.uk
53.21258,-1.67423,DE45 1ES,Bakewell Swimming Pool,http://www.freedom-leisure.co.uk/centres/bakewell-swimming-pool-and-gym/?utm_source=website&utm_medium=referral&utm_campaign=loveswimming
54.00117,-2.09936,BD23 3QE,Playaway Centre For Young People,http://www.playaway-centre.co.uk
54.01902,-2.13646,BD23 4AA,Newfield Hall,http://www.hfholidays.co.uk
52.67043,-2.44268,TF3 4EH,Holiday Inn Health Club (Telford / Ironbridge),http://www.southwatereventgroup.com
53.76049,-1.75971,BD12 0HQ,Sedbergh Sports and Leisure Centre,http://www.bradford.gov.uk/sport-and-activities/sports-centres-and-pools/sedbergh-sports-and-leisure-centre/
54.18567,-3.08667,LA12 9HT,Ulverston Leisure Centre,http://www.better.org.uk/leisure-centre/south-lakeland/ulverston/?utm_source=website&utm_medium=referral&utm_campaign=loveswimming
53.84709,-1.83959,BD16 2LF,Bingley Swimming Pool,http://www.bradford.gov.uk/sport-and-activities/sports-centres-and-pools/bingley-pool/
53.8314,-1.81973,BD16 1TZ,Cottingley Fitness & Wellbeing Centre,http://www.nuffieldhealth.com/gyms/cottingley/?utm_source=website&utm_medium=referral&utm_campaign=loveswimming
53.85579,-1.84603,BD16 2RS,Bingley Grammar School,http://www.bingleygrammar.org
54.19809,-2.89923,LA11 6ET,Netherwood Spa,http://www.netherwood-hotel.co.uk
53.48103,-1.60612,S36 1EG,Stocksbridge Community Leisure Centre,http://www.stocksbridgeclc.co.uk/
53.7908,-1.7664,BD7 1DP,University Of Bradford Sports Centre,http://www.brad.ac.uk/unique
52.67067,-2.37856,TF11 8HG,Haughton Hall Health Club,http://www.haughtonhall.com/leisure
53.81523,-1.78741,BD9 4BQ,St Bede's Catholic Grammar School,http://www.stbedes.ngfl.ac.uk
52.78631,-2.07041,ST17 0LJ,Walton High School,http://www.waltonstaffs.com
53.17079,-4.24111,LL55 1UE,Plas Menai National Watersports Centre,http://www.plasmenai.co.uk/
53.5922,-1.6219,HD8 9HU,Scissett Baths & Fitness Centre,http://www.kirkleesactive.co.uk/scissett
53.81455,-1.76981,BD9 4JP,Bradford Grammar School,http://www.bradfordgrammar.com
53.77806,-1.73532,BD4 7RH,Bowling Swimming Pool,http://www.bradford.gov.uk/sport-and-activities/sports-centres-and-pools/bowling-pool/
